{
  "type": "FeatureCollection",
  "features": [
    {
      "type": "Feature",
      "properties": {
        "name": "Kothrud",
        "type": "metro_station"
      },
      "geometry": {
        "type": "Point",
        "coordinates": [
          73.807673,
          18.5038889
        ]
      }
    },
    {
      "type": "Feature",
      "properties": {
        "name": "Shivajinagar",
        "type": "metro_station"
      },
      "geometry": {
        "type": "Point",
        "coordinates": [
          73.8485711,
          18.5304747
        ]
      }
    },
    {
      "type": "Feature",
      "properties": {
        "name": "Phugewadi",
        "type": "metro_station"
      },
      "geometry": {
        "type": "Point",
        "coordinates": [
          73.8311472,
          18.5911058
        ]
      }
    },
    {
      "type": "Feature",
      "properties": {
        "name": "Balewadi Stadium",
        "type": "metro_station"
      },
      "geometry": {
        "type": "Point",
        "coordinates": [
          73.7615418,
          18.5797092
        ]
      }
    },
    {
      "type": "Feature",
      "properties": {
        "name": "Doehler India",
        "type": "metro_station"
      },
      "geometry": {
        "type": "Point",
        "coordinates": [
          73.7028954,
          18.5881015
        ]
      }
    },
    {
      "type": "Feature",
      "properties": {
        "name": "Range Hills",
        "type": "metro_station"
      },
      "geometry": {
        "type": "Point",
        "coordinates": [
          73.8458072,
          18.5502871
        ]
      }
    },
    {
      "type": "Feature",
      "properties": {
        "name": "Megapolis Circle",
        "type": "metro_station"
      },
      "geometry": {
        "type": "Point",
        "coordinates": [
          73.6879997,
          18.5792197
        ]
      }
    },
    {
      "type": "Feature",
      "properties": {
        "name": "Dapodi",
        "type": "metro_station"
      },
      "geometry": {
        "type": "Point",
        "coordinates": [
          73.8337656,
          18.5837649
        ]
      }
    },
    {
      "type": "Feature",
      "properties": {
        "name": "PMC Bhavan",
        "type": "metro_station"
      },
      "geometry": {
        "type": "Point",
        "coordinates": [
          73.8533499,
          18.5227443
        ]
      }
    },
    {
      "type": "Feature",
      "properties": {
        "name": "Infosys",
        "type": "metro_station"
      },
      "geometry": {
        "type": "Point",
        "coordinates": [
          73.7092228,
          18.5941952
        ]
      }
    },
    {
      "type": "Feature",
      "properties": {
        "name": "Ruby Hall Clinic",
        "type": "metro_station"
      },
      "geometry": {
        "type": "Point",
        "coordinates": [
          73.8777486,
          18.5327176
        ]
      }
    },
    {
      "type": "Feature",
      "properties": {
        "name": "District Court (Aqua Line)",
        "type": "metro_station"
      },
      "geometry": {
        "type": "Point",
        "coordinates": [
          73.8577478,
          18.5267201
        ]
      }
    },
    {
      "type": "Feature",
      "properties": {
        "name": "Quadron",
        "type": "metro_station"
      },
      "geometry": {
        "type": "Point",
        "coordinates": [
          73.6948179,
          18.5840185
        ]
      }
    },
    {
      "type": "Feature",
      "properties": {
        "name": "Sant Tukaram Nagar",
        "type": "metro_station"
      },
      "geometry": {
        "type": "Point",
        "coordinates": [
          73.8157455,
          18.6145248
        ]
      }
    },
    {
      "type": "Feature",
      "properties": {
        "name": "Metro Station",
        "type": "metro_station"
      },
      "geometry": {
        "type": "Point",
        "coordinates": [
          73.8570097,
          18.5128979
        ]
      }
    },
    {
      "type": "Feature",
      "properties": {
        "name": "Agriculture College",
        "type": "metro_station"
      },
      "geometry": {
        "type": "Point",
        "coordinates": [
          73.8414867,
          18.533006
        ]
      }
    },
    {
      "type": "Feature",
      "properties": {
        "name": "Wipro",
        "type": "metro_station"
      },
      "geometry": {
        "type": "Point",
        "coordinates": [
          73.7171607,
          18.59659
        ]
      }
    },
    {
      "type": "Feature",
      "properties": {
        "name": "Kasarwadi",
        "type": "metro_station"
      },
      "geometry": {
        "type": "Point",
        "coordinates": [
          73.8272644,
          18.5996201
        ]
      }
    },
    {
      "type": "Feature",
      "properties": {
        "name": "RBI",
        "type": "metro_station"
      },
      "geometry": {
        "type": "Point",
        "coordinates": [
          73.8366919,
          18.5363707
        ]
      }
    },
    {
      "type": "Feature",
      "properties": {
        "name": "Wakad Chowk",
        "type": "metro_station"
      },
      "geometry": {
        "type": "Point",
        "coordinates": [
          73.7575587,
          18.5902986
        ]
      }
    },
    {
      "type": "Feature",
      "properties": {
        "name": "Nashik Phata",
        "type": "metro_station"
      },
      "geometry": {
        "type": "Point",
        "coordinates": [
          73.8200965,
          18.609303
        ]
      }
    },
    {
      "type": "Feature",
      "properties": {
        "name": "Swargate",
        "type": "metro_station"
      },
      "geometry": {
        "type": "Point",
        "coordinates": [
          73.8574604,
          18.4997453
        ]
      }
    },
    {
      "type": "Feature",
      "properties": {
        "name": "Bopodi",
        "type": "metro_station"
      },
      "geometry": {
        "type": "Point",
        "coordinates": [
          73.8381029,
          18.5696611
        ]
      }
    },
    {
      "type": "Feature",
      "properties": {
        "name": "Vanaz",
        "type": "metro_station"
      },
      "geometry": {
        "type": "Point",
        "coordinates": [
          73.8051948,
          18.5071853
        ]
      }
    },
    {
      "type": "Feature",
      "properties": {
        "name": "Anandnagar",
        "type": "metro_station"
      },
      "geometry": {
        "type": "Point",
        "coordinates": [
          73.8140749,
          18.5095724
        ]
      }
    },
    {
      "type": "Feature",
      "properties": {
        "name": "Paud Phata",
        "type": "metro_station"
      },
      "geometry": {
        "type": "Point",
        "coordinates": [
          73.822144,
          18.508885
        ]
      }
    },
    {
      "type": "Feature",
      "properties": {
        "name": "SNDT College",
        "type": "metro_station"
      },
      "geometry": {
        "type": "Point",
        "coordinates": [
          73.8287815,
          18.5073567
        ]
      }
    },
    {
      "type": "Feature",
      "properties": {
        "name": "Garware College",
        "type": "metro_station"
      },
      "geometry": {
        "type": "Point",
        "coordinates": [
          73.8380505,
          18.5119886
        ]
      }
    },
    {
      "type": "Feature",
      "properties": {
        "name": "Pimpri Chinchwad Municipal Corporation (PCMC)",
        "type": "metro_station"
      },
      "geometry": {
        "type": "Point",
        "coordinates": [
          73.8032857,
          18.6293185
        ]
      }
    },
    {
      "type": "Feature",
      "properties": {
        "name": "Shivaji Nagar",
        "type": "metro_station"
      },
      "geometry": {
        "type": "Point",
        "coordinates": [
          73.8496602,
          18.532172
        ]
      }
    },
    {
      "type": "Feature",
      "properties": {
        "name": "District Court (Purple Line)",
        "type": "metro_station"
      },
      "geometry": {
        "type": "Point",
        "coordinates": [
          73.8568986,
          18.5267856
        ]
      }
    },
    {
      "type": "Feature",
      "properties": {
        "name": "Chhatrapati Sambhaji Udyan",
        "type": "metro_station"
      },
      "geometry": {
        "type": "Point",
        "coordinates": [
          73.847383,
          18.5200806
        ]
      }
    },
    {
      "type": "Feature",
      "properties": {
        "name": "Deccan Gymkhana",
        "type": "metro_station"
      },
      "geometry": {
        "type": "Point",
        "coordinates": [
          73.8444458,
          18.5164485
        ]
      }
    },
    {
      "type": "Feature",
      "properties": {
        "name": "Bund Garden",
        "type": "metro_station"
      },
      "geometry": {
        "type": "Point",
        "coordinates": [
          73.8834394,
          18.5405933
        ]
      }
    },
    {
      "type": "Feature",
      "properties": {
        "name": "Yerwada",
        "type": "metro_station"
      },
      "geometry": {
        "type": "Point",
        "coordinates": [
          73.8866882,
          18.5453173
        ]
      }
    },
    {
      "type": "Feature",
      "properties": {
        "name": "Kalyani Nagar",
        "type": "metro_station"
      },
      "geometry": {
        "type": "Point",
        "coordinates": [
          73.9056979,
          18.5444806
        ]
      }
    },
    {
      "type": "Feature",
      "properties": {
        "name": "Ramwadi",
        "type": "metro_station"
      },
      "geometry": {
        "type": "Point",
        "coordinates": [
          73.9085628,
          18.557028
        ]
      }
    },
    {
      "type": "Feature",
      "properties": {
        "name": "Kasba Peth कसबा पेठ",
        "type": "metro_station"
      },
      "geometry": {
        "type": "Point",
        "coordinates": [
          73.8596235,
          18.5213749
        ]
      }
    },
    {
      "type": "Feature",
      "properties": {
        "name": "District Court (Pink Line)",
        "type": "metro_station"
      },
      "geometry": {
        "type": "Point",
        "coordinates": [
          73.856089,
          18.5283279
        ]
      }
    },
    {
      "type": "Feature",
      "properties": {
        "name": "Yervada Metro Station",
        "type": "metro_station"
      },
      "geometry": {
        "type": "Point",
        "coordinates": [
          73.8865332,
          18.5452779
        ]
      }
    },
    {
      "type": "Feature",
      "properties": {
        "name": "Shivaji Nagar Railway Station",
        "type": "metro_station"
      },
      "geometry": {
        "type": "Point",
        "coordinates": [
          73.8513848,
          18.5323977
        ]
      }
    },
    {
      "type": "Feature",
      "properties": {
        "name": "District Court Metro Station",
        "type": "metro_station"
      },
      "geometry": {
        "type": "Point",
        "coordinates": [
          73.8575691,
          18.5267131
        ]
      }
    },
    {
      "type": "Feature",
      "properties": {
        "name": "Khadki",
        "type": "metro_station"
      },
      "geometry": {
        "type": "Point",
        "coordinates": [
          73.8420825,
          18.5622619
        ]
      }
    },
    {
      "type": "Feature",
      "properties": {
        "name": "Savitribal Phule Pune University",
        "type": "metro_station"
      },
      "geometry": {
        "type": "Point",
        "coordinates": [
          73.8271729,
          18.5423466
        ]
      }
    },
    {
      "type": "Feature",
      "properties": {
        "name": "YASHADA",
        "type": "metro_station"
      },
      "geometry": {
        "type": "Point",
        "coordinates": [
          73.8196654,
          18.5463251
        ]
      }
    },
    {
      "type": "Feature",
      "properties": {
        "name": "Krushi Anusandhan",
        "type": "metro_station"
      },
      "geometry": {
        "type": "Point",
        "coordinates": [
          73.808227,
          18.5502692
        ]
      }
    },
    {
      "type": "Feature",
      "properties": {
        "name": "Baner",
        "type": "metro_station"
      },
      "geometry": {
        "type": "Point",
        "coordinates": [
          73.7979381,
          18.5549643
        ]
      }
    },
    {
      "type": "Feature",
      "properties": {
        "name": "Baner Gaon",
        "type": "metro_station"
      },
      "geometry": {
        "type": "Point",
        "coordinates": [
          73.7905982,
          18.5591961
        ]
      }
    },
    {
      "type": "Feature",
      "properties": {
        "name": "Balewadi Phata",
        "type": "metro_station"
      },
      "geometry": {
        "type": "Point",
        "coordinates": [
          73.7797665,
          18.5641859
        ]
      }
    },
    {
      "type": "Feature",
      "properties": {
        "name": "High Street",
        "type": "metro_station"
      },
      "geometry": {
        "type": "Point",
        "coordinates": [
          73.7748382,
          18.570512
        ]
      }
    },
    {
      "type": "Feature",
      "properties": {
        "name": "NICMAR",
        "type": "metro_station"
      },
      "geometry": {
        "type": "Point",
        "coordinates": [
          73.7660624,
          18.5750336
        ]
      }
    },
    {
      "type": "Feature",
      "properties": {
        "name": "Jakat Naka",
        "type": "metro_station"
      },
      "geometry": {
        "type": "Point",
        "coordinates": [
          73.7463002,
          18.5909665
        ]
      }
    },
    {
      "type": "Feature",
      "properties": {
        "name": "Hinjawadi",
        "type": "metro_station"
      },
      "geometry": {
        "type": "Point",
        "coordinates": [
          73.7373573,
          18.5923946
        ]
      }
    },
    {
      "type": "Feature",
      "properties": {
        "name": "Bhakti Shakti",
        "type": "metro_station"
      },
      "geometry": {
        "type": "Point",
        "coordinates": [
          73.7745745,
          18.6625606
        ]
      }
    },
    {
      "type": "Feature",
      "properties": {
        "name": "Nigdi",
        "type": "metro_station"
      },
      "geometry": {
        "type": "Point",
        "coordinates": [
          73.778398,
          18.6583986
        ]
      }
    },
    {
      "type": "Feature",
      "properties": {
        "name": "Akurdi",
        "type": "metro_station"
      },
      "geometry": {
        "type": "Point",
        "coordinates": [
          73.7847467,
          18.65116
        ]
      }
    },
    {
      "type": "Feature",
      "properties": {
        "name": "Chinchwad",
        "type": "metro_station"
      },
      "geometry": {
        "type": "Point",
        "coordinates": [
          73.7949314,
          18.6391732
        ]
      }
    },
    {
      "type": "Feature",
      "properties": {
        "name": "Hadapsar",
        "type": "metro_station"
      },
      "geometry": {
        "type": "Point",
        "coordinates": [
          73.9227746,
          18.5036702
        ]
      }
    }
  ]
}