{"type" : "FeatureCollection", "features" : [{"type" : "Feature", "geometry" : {"type" : "Point", "coordinates" : [73.8076,18.6298]}, "properties" : {"name" : "PCMC", "stop_type" : "metro_station", "route_info" : "Purple Line"}}, {"type" : "Feature", "geometry" : {"type" : "Point", "coordinates" : [73.8075,18.6218]}, "properties" : {"name" : "Sant Tukaram Nagar", "stop_type" : "metro_station", "route_info" : "Purple Line"}}, {"type" : "Feature", "geometry" : {"type" : "Point", "coordinates" : [73.8087,18.6134]}, "properties" : {"name" : "Bhosari", "stop_type" : "metro_station", "route_info" : "Purple Line"}}, {"type" : "Feature", "geometry" : {"type" : "Point", "coordinates" : [73.8102,18.6048]}, "properties" : {"name" : "Kasarwadi", "stop_type" : "metro_station", "route_info" : "Purple Line"}}, {"type" : "Feature", "geometry" : {"type" : "Point", "coordinates" : [73.8127,18.5942]}, "properties" : {"name" : "Phugewadi", "stop_type" : "metro_station", "route_info" : "Purple Line"}}, {"type" : "Feature", "geometry" : {"type" : "Point", "coordinates" : [73.8168,18.5825]}, "properties" : {"name" : "Dapodi", "stop_type" : "metro_station", "route_info" : "Purple Line"}}, {"type" : "Feature", "geometry" : {"type" : "Point", "coordinates" : [73.8282,18.5665]}, "properties" : {"name" : "Bopodi", "stop_type" : "metro_station", "route_info" : "Purple Line"}}, {"type" : "Feature", "geometry" : {"type" : "Point", "coordinates" : [73.8361,18.5568]}, "properties" : {"name" : "Khadki", "stop_type" : "metro_station", "route_info" : "Purple Line"}}, {"type" : "Feature", "geometry" : {"type" : "Point", "coordinates" : [73.8454,18.5438]}, "properties" : {"name" : "Range Hills", "stop_type" : "metro_station", "route_info" : "Purple Line"}}, {"type" : "Feature", "geometry" : {"type" : "Point", "coordinates" : [73.8507,18.5337]}, "properties" : {"name" : "Shivajinagar", "stop_type" : "metro_station", "route_info" : "Purple Line"}}, {"type" : "Feature", "geometry" : {"type" : "Point", "coordinates" : [73.8558,18.5259]}, "properties" : {"name" : "Civil Court", "stop_type" : "metro_station", "route_info" : "Purple Line"}}, {"type" : "Feature", "geometry" : {"type" : "Point", "coordinates" : [73.8623,18.5186]}, "properties" : {"name" : "Budhwar Peth", "stop_type" : "metro_station", "route_info" : "Purple Line"}}, {"type" : "Feature", "geometry" : {"type" : "Point", "coordinates" : [73.8651,18.5125]}, "properties" : {"name" : "Mandai", "stop_type" : "metro_station", "route_info" : "Purple Line"}}, {"type" : "Feature", "geometry" : {"type" : "Point", "coordinates" : [73.8635,18.5035]}, "properties" : {"name" : "Swargate", "stop_type" : "metro_station", "route_info" : "Purple Line"}}, {"type" : "Feature", "geometry" : {"type" : "Point", "coordinates" : [73.8072,18.5126]}, "properties" : {"name" : "Vanaz", "stop_type" : "metro_station", "route_info" : "Aqua Line"}}, {"type" : "Feature", "geometry" : {"type" : "Point", "coordinates" : [73.8148,18.513]}, "properties" : {"name" : "Anand Nagar", "stop_type" : "metro_station", "route_info" : "Aqua Line"}}, {"type" : "Feature", "geometry" : {"type" : "Point", "coordinates" : [73.8224,18.5148]}, "properties" : {"name" : "Ideal Colony", "stop_type" : "metro_station", "route_info" : "Aqua Line"}}, {"type" : "Feature", "geometry" : {"type" : "Point", "coordinates" : [73.8286,18.5151]}, "properties" : {"name" : "Nal Stop", "stop_type" : "metro_station", "route_info" : "Aqua Line"}}, {"type" : "Feature", "geometry" : {"type" : "Point", "coordinates" : [73.839,18.5163]}, "properties" : {"name" : "Garware College", "stop_type" : "metro_station", "route_info" : "Aqua Line"}}, {"type" : "Feature", "geometry" : {"type" : "Point", "coordinates" : [73.8465,18.5175]}, "properties" : {"name" : "Deccan Gymkhana", "stop_type" : "metro_station", "route_info" : "Aqua Line"}}, {"type" : "Feature", "geometry" : {"type" : "Point", "coordinates" : [73.8545,18.5202]}, "properties" : {"name" : "Chhatrapati Sambhaji Udyan", "stop_type" : "metro_station", "route_info" : "Aqua Line"}}, {"type" : "Feature", "geometry" : {"type" : "Point", "coordinates" : [73.8623,18.5186]}, "properties" : {"name" : "PMC (Civil Court)", "stop_type" : "metro_station", "route_info" : "Aqua Line"}}, {"type" : "Feature", "geometry" : {"type" : "Point", "coordinates" : [73.871,18.5195]}, "properties" : {"name" : "Mangalwar Peth", "stop_type" : "metro_station", "route_info" : "Aqua Line"}}, {"type" : "Feature", "geometry" : {"type" : "Point", "coordinates" : [73.8815,18.523]}, "properties" : {"name" : "Pune Railway Station", "stop_type" : "metro_station", "route_info" : "Aqua Line"}}, {"type" : "Feature", "geometry" : {"type" : "Point", "coordinates" : [73.8908,18.526]}, "properties" : {"name" : "Ruby Hall", "stop_type" : "metro_station", "route_info" : "Aqua Line"}}, {"type" : "Feature", "geometry" : {"type" : "Point", "coordinates" : [73.9,18.5285]}, "properties" : {"name" : "Bund Garden", "stop_type" : "metro_station", "route_info" : "Aqua Line"}}, {"type" : "Feature", "geometry" : {"type" : "Point", "coordinates" : [73.9085,18.534]}, "properties" : {"name" : "Yerawada", "stop_type" : "metro_station", "route_info" : "Aqua Line"}}, {"type" : "Feature", "geometry" : {"type" : "Point", "coordinates" : [73.918,18.5382]}, "properties" : {"name" : "Kalyani Nagar", "stop_type" : "metro_station", "route_info" : "Aqua Line"}}, {"type" : "Feature", "geometry" : {"type" : "Point", "coordinates" : [73.929,18.543]}, "properties" : {"name" : "Ramwadi", "stop_type" : "metro_station", "route_info" : "Aqua Line"}}, {"type" : "Feature", "geometry" : {"type" : "Point", "coordinates" : [73.8815,18.5285]}, "properties" : {"name" : "Pune Junction", "stop_type" : "railway_station", "route_info" : "Central Railway"}}, {"type" : "Feature", "geometry" : {"type" : "Point", "coordinates" : [73.8507,18.5337]}, "properties" : {"name" : "Shivajinagar Railway Station", "stop_type" : "railway_station", "route_info" : "Central Railway"}}, {"type" : "Feature", "geometry" : {"type" : "Point", "coordinates" : [73.8135,18.509]}, "properties" : {"name" : "Kothrud Railway Station", "stop_type" : "railway_station", "route_info" : "Central Railway"}}]}
